[{"OBJECT_NAME":"STARLINK-6066","OBJECT_ID":"2023-046N","EPOCH":"2026-03-09T22:56:43.180512","MEAN_MOTION":15.02528705,"ECCENTRICITY":0.00014316,"INCLINATION":43.0053,"RA_OF_ASC_NODE":157.3678,"ARG_OF_PERICENTER":265.4181,"MEAN_ANOMALY":94.6498,"EPHEMERIS_TYPE":0,"CLASSIFICATION_TYPE":"U","NORAD_CAT_ID":56105,"ELEMENT_SET_NO":999,"REV_AT_EPOCH":16210,"BSTAR":9.897116e-6,"MEAN_MOTION_DOT":-7.0e-7,"MEAN_MOTION_DDOT":0},{"OBJECT_NAME":"LEMUR-2-SQUIRRELCOMM","OBJECT_ID":"2024-149DQ","EPOCH":"2026-03-09T21:26:31.466400","MEAN_MOTION":15.05887962,"ECCENTRICITY":0.00061012,"INCLINATION":97.6754,"RA_OF_ASC_NODE":150.1976,"ARG_OF_PERICENTER":42.3481,"MEAN_ANOMALY":317.8216,"EPHEMERIS_TYPE":0,"CLASSIFICATION_TYPE":"U","NORAD_CAT_ID":60578,"ELEMENT_SET_NO":999,"REV_AT_EPOCH":8545,"BSTAR":0.00060830109,"MEAN_MOTION_DOT":8.786e-5,"MEAN_MOTION_DDOT":0}]
